#dP2022  9  1  0  0  0.00000000      96 __u+U ITR00 EXT  IAC
## 2225 345600.00000000   900.00000000 59823 0.0000000000000
+  117   C06C07C08C09C10C11C12C13C14C16C19C20C21C22C23C24C25
+        C26C27C28C29C30C32C33C34C35C36C37C38C39C40C41C42C43
+        C44C45C46E01E02E03E04E05E07E08E09E10E11E12E13E14E15
+        E18E19E21E24E25E26E27E30E31E33E34E36G01G02G03G04G05
+        G06G07G08G09G10G11G12G13G14G15G16G17G18G19G20G21G22
+        G23G24G25G26G27G28G29G30G31G32J02J03R01R02R03R04R05
+        R07R08R09R11R12R13R14R15R17R18R19R20R21R24R25  0  0
++         9 10 10  8 11  0 14  8  9 10  8  8  8  8  8  9  8
++         8  9  8  7  8  8  9  8  8  8 10 10  9 10  8  8 10
++         8  8  8  8  8  8  8  8  8  8  8  9  8  8  8  7  8
++         7  9  9 10  9  9  8  8  9  8  8  8  8  8  8  8  8
++         8  8  8  7  8  7  8 10  9  8  8  9  8  7  7  8  8
++         8  8  8  7  8  8  8  8  8  8 11 10  9  8  9  9  9
++         8  9  8  8  8  9  8  8  9  9  9  9  9  8 10  0  0
%c M  cc GPS ccc cccc cccc cccc cccc ccccc ccccc ccccc ccccc
%c cc cc ccc ccc cccc cccc cccc cccc ccccc ccccc ccccc ccccc
%f  0.0000000  0.000000000  0.00000000000  0.000000000000000
%f  0.0000000  0.000000000  0.00000000000  0.000000000000000
%i    0    0    0    0      0      0      0      0         0
%i    0    0    0    0      0      0      0      0         0
/* IAC                                ULTRA-RAPID PREDICTION
/* S/V CLOCKS ARE ALIGNED TO GNSS TIME                      
/* G:C1WC2W R:C1PC2P E:C1XC5X C:C2IC6I J:C1CC2S             
/* PCV:IGS14_2218 OL/AL:FES2004  NONE     YN ORB:CoN CLK:CoN
*  2022 09 01 20  0  0.00000000
PC06  -3818.293907  37386.763479 -18867.121279    742.877997
PC07 -10673.070352  25473.947226  31880.773824    -83.177180
PC08 -19463.944224  34170.113326 -15466.591712    459.287165
PC09   1787.180445  40504.730343 -10207.889098   -876.733709
PC10  -1950.769242  27114.110936  32538.723732    101.850032
PC11  17202.923494   8632.131920 -20158.051839   -434.160220
PC12  13342.855066  23677.714854  -6354.645983   -532.441141
PC13 -13115.571322  34454.026980 -20606.275872     68.913931
PC14  27651.241093   3984.097141     28.943732    625.721929
PC16  -5753.590149  35373.509110 -21799.725595    140.250378
PC19 -26190.067687   2593.223240  -9234.626659   -560.045738
PC20 -25308.696381  -8938.369485   7589.219961    389.290118
PC21   9110.874016  15919.666201 -21029.103816   -307.599949
PC22 -11948.194812  13159.480254 -21514.317235   -434.467820
PC23  15946.224287 -22770.985770  -2407.256222   -966.979284
PC24  13996.417574   8529.878483  22582.501394   -971.478848
PC25  21259.799542 -11711.157087  13748.810476   -684.371370
PC26    183.636659  21250.613819  18096.779498     -1.492095
PC27  -8432.288250 -26513.392254  -2234.494794     14.384211
PC28   4689.655521 -21374.731152 -17309.832604      8.084658
PC29 -15705.387891   3522.591786  22788.028036      7.819772
PC30 -17572.800990 -16631.576248  13909.439622    502.622202
PC32  -9096.360952 -15876.699968  21074.198286   -824.180482
PC33  26234.251489  -2697.333011   9145.203351   -556.455412
PC34  17786.349601  15633.865513 -14764.815120   -323.029198
PC35  -4977.116714  20633.578045  18093.154650    439.441164
PC36 -21505.945243  10736.806742 -14150.775151    563.857598
PC37   1402.851152 -21787.601528 -17346.155962    -62.976211
PC38 -23586.297942  34273.294169  -7381.005678     21.296628
PC39  -7933.252911  31889.895324 -26285.142703     -0.346878
PC40 -15806.784660  18734.759367  34263.695414     -3.363260
PC41  12485.072504 -13045.398113  21320.959491    -39.445963
PC42  24794.895549   9511.452151  -8569.330469   -219.158667
PC43  16106.673210  -2707.381616 -22635.785032     11.917209
PC44   9257.652094  26202.533080   2379.056347     36.523384
PC45 -15738.043706  22892.548596   2781.442365    850.132039
PC46 -15077.061460  -6769.748311 -22480.514000   -518.405486
PE01  21604.228400   5841.376798  19380.683874   -544.522141
PE02 -21751.914126  -5690.583288 -19253.319013    322.060877
PE03 -24682.318624 -15720.423609  -4412.970808   -595.525801
PE04  22040.107212   -208.303238  19761.420604  -1106.280507
PE05 -12859.972294 -22761.463889  13878.858797   -148.000063
PE07  -6234.804721  16458.571443 -23798.906003   -701.760506
PE08 -21901.285078    290.063723 -19907.235870   -591.473242
PE09   6207.976336 -16295.797466  23915.361448   -643.625518
PE10  14037.911744 -19498.578566 -17292.013023   -473.898670
PE11   9420.229181 -26793.031833  -8362.401350   2398.283227
PE12  16332.188248  -9587.594742 -22758.406289   -146.481474
PE13  -9738.727262  26433.008442   9094.359860    430.462545
PE14  15189.830069 -13053.948778 -24081.216300  -1732.440836
PE15 -16254.540280   9413.964689  22877.503961    723.128726
PE18   -857.934757  19789.503767  16575.212860  -1025.987464
PE19  23869.842638  17394.080104   1957.916298  -4647.137553
PE21   3990.801410  16312.683672  24382.329698   -755.254505
PE24  18113.240780 -17975.014558 -14986.980141   -813.411814
PE25  -3662.592985 -16413.125254 -24345.457767   -586.413105
PE26   3006.353556  27454.174211 -10668.305945  -1563.660914
PE27 -17144.305112  18248.971454  15803.231297   -382.107004
PE30 -28145.375866   8742.604274  -2826.136122   -802.340344
PE31  27992.673244  -9409.202377   2021.617145   -502.735729
PE33  13142.671510  13063.488551 -23084.801318   -453.591557
PE34 -13237.538808 -12830.228784  23143.175273     -2.374328
PE36  -2424.682777 -27791.146483   9890.094734   -425.284167
PG01 -13444.203055  18831.357659  12416.753759    291.392796
PG02  15056.643799  -9083.230289 -19341.199962   -647.406445
PG03 -21869.260831  12333.531021  -8615.629033   -343.546078
PG04 -12138.216343   9245.704580 -21741.100455   -124.869886
PG05  25747.726117  -5610.952238  -4040.589987    -95.078262
PG06   8302.227699  16971.503397 -18577.182067    446.374195
PG07  -5015.499952  25752.335988   2075.670026    310.749947
PG08 -18534.393183    976.455696  19089.094987    -82.855282
PG09   -970.716251  17993.909666 -19575.659065   -301.294030
PG10  -7514.441595 -13297.210588  21904.175858     -1.404989
PG11  14191.933486   5370.407602 -21801.153250    -13.775345
PG12  23269.127585 -10307.500167  -7676.038742   -271.610256
PG13  20049.590210   8919.839300  14928.646502    379.325363
PG14   5121.405172  14603.108051  21597.111014   -106.290441
PG15  18572.405030  -3270.350624  18382.019401    -32.479652
PG16 -25138.316292  -1753.006823  -9368.688945   -522.762619
PG17  11103.299822  22124.184861   9980.693016    654.743189
PG18   5227.097254 -25847.623835   2481.031275     62.667632
PG19  17409.695916  20236.483795   -589.317244    205.047054
PG20  21154.975278   2608.367256 -15694.349018    489.927098
PG21 -15453.032901   9975.968735  19508.673656    159.932342
PG22 -18569.439692 -18954.910295  -2115.251595    320.274399
PG23   4267.866121 -16168.211144  20594.560112    -38.647460
PG24  14193.354203 -15656.905707  15517.335210    149.738543
PG25  13044.073345 -16155.134274 -16691.931768    367.397277
PG26 -19806.713956  -6188.247011 -16843.007095    226.573406
PG27 -21848.141607 -10760.717459  10841.659229    215.499744
PG28  14158.075808  11280.779386  19862.171064    340.082202
PG29   2705.337056 -17212.216222 -20067.865062   -547.928780
PG30   2758.770026  23546.746546  11806.728258   -536.597361
PG31 -10000.458676 -15212.628937 -19313.785926   -191.818171
PG32 -14719.185226 -21052.951241   7282.379825   -220.766366
PJ02 -31379.208681  26678.093125  14054.103489     -4.194424
PJ03 -26035.364367  25822.901758  25893.836064     -1.162526
PR01  12703.086919  13019.267884 -17891.928635     14.085547
PR02  23929.004005   8711.462981   -588.282240    528.522193
PR03  20061.148688   -989.179636  15725.789302     62.933769
PR04   5107.897998  -9631.172146  23083.173239    156.041717
PR05 -12618.807551 -13245.223658  17795.067245     98.918934
PR07 -19683.640951   1314.961916 -16167.236765     40.294328
PR08  -5002.869924   9773.841573 -22972.950384    -66.999861
PR09 -15319.937440    346.104411 -20346.398755     74.406523
PR11 -14406.917676  18891.209245   9279.576176     28.700471
PR12    898.537894  13173.170012  21859.420486     20.709253
PR13  14305.051208    734.082170  21099.262869    -26.339574
PR14  20427.709331 -13480.597296   7241.492852     24.343471
PR15  13999.749327 -18773.278857 -10092.254503     93.929886
PR17   9206.559581  -6880.280514 -22761.044566    557.510531
PR18   2339.085275 -21415.470668 -13680.526269     40.363268
PR19  -4449.267712 -25075.802677   1306.001368   -202.134142
PR20 -10577.790483 -13174.366433  19127.491925    -77.614078
PR21  -8669.807235   8558.703737  22413.349892   -330.329040
PR24  11380.685186  12161.545600 -19315.850878    112.171075
PR25  -3127.929074  21705.583692  13047.092770     12.702770
EOF
